[{"OBJECT_NAME":"YAOGAN-35 02A","OBJECT_ID":"2022-068A","EPOCH":"2026-03-09T23:36:37.257984","MEAN_MOTION":15.22666149,"ECCENTRICITY":0.00125559,"INCLINATION":34.9934,"RA_OF_ASC_NODE":42.9156,"ARG_OF_PERICENTER":259.7032,"MEAN_ANOMALY":100.2267,"EPHEMERIS_TYPE":0,"CLASSIFICATION_TYPE":"U","NORAD_CAT_ID":52907,"ELEMENT_SET_NO":999,"REV_AT_EPOCH":20675,"BSTAR":0.00043413541,"MEAN_MOTION_DOT":0.00010355,"MEAN_MOTION_DDOT":0},{"OBJECT_NAME":"STARLINK-30287","OBJECT_ID":"2023-129M","EPOCH":"2026-03-09T03:42:02.676960","MEAN_MOTION":15.26742719,"ECCENTRICITY":0.00018099,"INCLINATION":43.0029,"RA_OF_ASC_NODE":120.6792,"ARG_OF_PERICENTER":270.9354,"MEAN_ANOMALY":89.129,"EPHEMERIS_TYPE":0,"CLASSIFICATION_TYPE":"U","NORAD_CAT_ID":57709,"ELEMENT_SET_NO":999,"REV_AT_EPOCH":14060,"BSTAR":2.6508797e-5,"MEAN_MOTION_DOT":4.51e-6,"MEAN_MOTION_DDOT":0}]
